0 IRIDIUM 75
1 25346U 98032E   13281.49480771  .00000112  00000-0  33097-4 0  5094
2 25346 086.3954 067.4098 0002185 110.7434 312.8575 14.34211591806508
0 IRIDIUM 75
1 25346U 98032E   13281.49480771  .00000112  00000-0  33097-4 0  5106
2 25346 086.3954 067.4098 0002185 110.7434 312.8575 14.34211591806508
0 IRIDIUM 75
1 25346U 98032E   13282.47095001  .00000135  00000-0  41195-4 0  5117
2 25346 086.3954 067.0015 0002190 110.5786 309.8173 14.34212487806647
0 IRIDIUM 75
1 25346U 98032E   13283.51412684  .00000157  00000-0  49108-4 0  5120
2 25346 086.3956 066.5651 0002199 110.5262 292.5602 14.34213260806798
0 IRIDIUM 75
1 25346U 98032E   13284.49536308  .00000190  00000-0  60635-4 0  5134
2 25346 086.3958 066.1548 0002207 110.8523 315.3199 14.34213973806936
0 IRIDIUM 75
1 25346U 98032E   13285.47134172  .00000209  00000-0  67734-4 0  5145
2 25346 086.3961 065.7467 0002206 110.6731 311.4594 14.34214877807079
0 IRIDIUM 75
1 25346U 98032E   13286.44236924  .00000244  00000-0  79919-4 0  5159
2 25346 086.3964 065.3407 0002215 110.6399 281.9076 14.34215404807211
0 IRIDIUM 75
1 25346U 98032E   13287.49574110  .00000295  00000-0  98384-4 0  5161
2 25346 086.3967 064.9002 0002218 110.6880 317.1666 14.34216162807363
0 IRIDIUM 75
1 25346U 98032E   13287.49574110  .00000295  00000-0  98384-4 0  5172
2 25346 086.3967 064.9002 0002218 110.6880 317.1666 14.34216162807363
0 IRIDIUM 75
1 25346U 98032E   13288.46740572  .00000424  00000-0  14447-3 0  5189
2 25346 086.3970 064.4940 0002218 110.3099 291.2520 14.34217251807509
0 IRIDIUM 75
1 25346U 98032E   13289.44292657  .00000340  00000-0  11447-3 0  5199
2 25346 086.3972 064.0863 0002231 110.5064 284.6635 14.34218281807642
0 IRIDIUM 75
1 25346U 98032E   13290.41915870  .00000395  00000-0  13401-3 0  5201
2 25346 086.3973 063.6782 0002235 110.3688 282.0831 14.34218833807780
0 IRIDIUM 75
1 25346U 98032E   13291.47258175  .00000405  00000-0  13742-3 0  5217
2 25346 086.3974 063.2379 0002204 110.1483 317.8872 14.34219570807934
0 IRIDIUM 75
1 25346U 98032E   13291.47258175  .00000405  00000-0  13742-3 0  5228
2 25346 086.3974 063.2379 0002204 110.1483 317.8872 14.34219570807934
0 IRIDIUM 75
1 25346U 98032E   13292.44853332  .00000444  00000-0  15164-3 0  5236
2 25346 086.3974 062.8301 0002203 110.2596 313.6154 14.34220308808073
0 IRIDIUM 75
1 25346U 98032E   13293.42458247  .00000474  00000-0  16213-3 0  5241
2 25346 086.3974 062.4221 0002206 110.1427 310.0770 14.34221148808219
0 IRIDIUM 75
1 25346U 98032E   13294.46764443  .00000440  00000-0  15016-3 0  5258
2 25346 086.3974 061.9861 0002202 110.6076 291.7413 14.34222173808368
0 IRIDIUM 75
1 25346U 98032E   13295.44911580  .00000472  00000-0  16141-3 0  5269
2 25346 086.3975 061.5760 0002201 110.4345 316.2437 14.34223217808504
